{"format":"tle-catalog-v1","generatedAt":"2026-07-01T14:19:31.438Z","count":19018,"entries":[{"name":"2021-022F","line1":"1 47937U 21022F   26182.21737457  .00010427  00000+0  32611-3 0  9991","line2":"2 47937  97.3883  82.9033 0011003  51.0963 309.1258 15.33269810291866"},{"name":"2021-022X","line1":"1 47953U 21022X   26182.16006291  .00154902  00000+0  91417-3 0  9994","line2":"2 47953  97.3897 100.1062 0003904  73.7179 286.4517 15.77702977292708"},{"name":"2021-050D","line1":"1 48843U 21050D   26182.19518059  .00003255  00000+0  13945-3 0  9991","line2":"2 48843  97.3341 257.9118 0004979 198.5304 161.5753 15.23464457281097"},{"name":"AII-BRAVO","line1":"1 48270U 21034C   26182.13033759  .00004347  00000+0  32245-3 0  9997","line2":"2 48270  97.5610 236.7248 0005021 198.6913 161.4129 15.03580811281713"},{"name":"ARKTIKA-M 1","line1":"1 47719U 21016A   26180.95192977 -.00000281  00000+0  00000+0 0  9994","line2":"2 47719  63.2520  55.7907 7292817 269.9910  14.5481  2.00617895 39040"},{"name":"CSS (TIANHE)","line1":"1 48274U 21035A   26182.11527425  .00021315  00000+0  24568-3 0  9991","line2":"2 48274  41.4677 237.2035 0008757 190.5766 169.4890 15.61398699295346"},{"name":"CUBEL","line1":"1 47448U 21006AM  26182.11885200  .00025713  00000+0  60913-3 0  9999","line2":"2 47448  97.2321 232.5741 0007988 121.9543 238.2482 15.41712961301903"},{"name":"GLOBAL-9","line1":"1 47971U 21023G   26181.42757661  .00016497  00000+0  32519-3 0  9991","line2":"2 47971  44.9789 176.0800 0003066  39.4529 320.6584 15.47060285296991"},{"name":"GONETS-M 20","line1":"1 47227U 20091A   26182.17347480  .00000076  00000+0  47697-3 0  9995","line2":"2 47227  82.5059 293.7413 0021768 148.0880 212.1523 12.42894134252817"},{"name":"GONETS-M 21","line1":"1 47228U 20091B   26182.14740502  .00000032  00000+0  16089-3 0  9998","line2":"2 47228  82.4983 292.4560 0015375 160.9441 199.2217 12.42887141252809"},{"name":"GONETS-M 22","line1":"1 47229U 20091C   26182.20094144  .00000149  00000+0  10052-2 0  9992","line2":"2 47229  82.5041 293.3279 0022718 143.6221 216.6408 12.42893657252766"},{"name":"GRUS-1B","line1":"1 47934U 21022C   26182.19691039  .00000828  00000+0  73427-4 0  9995","line2":"2 47934  97.5360  64.9319 0014776 272.6714  87.2818 14.98745343287992"},{"name":"HAIYANG-2D","line1":"1 48621U 21043A   26182.17310127  .00000285  00000+0  33289-3 0  9994","line2":"2 48621  65.9997 269.8798 0011545 267.3974  92.5773 13.83373239258483"},{"name":"ICEYE-X6","line1":"1 46497U 20068M   26182.22406484  .00002522  00000+0  18438-3 0  9992","line2":"2 46497  98.0968 176.5675 0008468  52.3355 307.8636 15.04596248315341"},{"name":"KSM1-A","line1":"1 46912U 20081H   26181.90279058  .00008368  00000+0  31964-3 0  9991","line2":"2 46912  36.8981 336.7508 0002391  44.1542 315.9398 15.26172040311276"},{"name":"KSM1-B","line1":"1 46914U 20081K   26182.24531201  .00007203  00000+0  28806-3 0  9990","line2":"2 46914  36.9038 342.0596 0004930  24.9510 335.1477 15.24707662314335"},{"name":"KSM1-C","line1":"1 46906U 20081B   26181.82710100  .00008684  00000+0  32371-3 0  9997","line2":"2 46906  36.8969 334.7217 0003276 322.3438  37.7081 15.26963281311259"},{"name":"KSM1-D","line1":"1 46907U 20081C   26181.91250642  .00007817  00000+0  31033-3 0  9999","line2":"2 46907  36.8982 343.4697 0003832 353.1535   6.9161 15.24916567311195"},{"name":"MANDRAKE 2 ABLE","line1":"1 48907U 21059AE  26182.07154416  .00026678  00000+0  39103-3 0  9999","line2":"2 48907  97.7023  12.9195 0003478 304.0714  56.0209 15.55531860279285"},{"name":"MANDRAKE 2 BAKER","line1":"1 48908U 21059AF  26182.02596763  .00034788  00000+0  42655-3 0  9997","line2":"2 48908  97.6990  15.8397 0002112 295.3181  64.7856 15.60270269279450"},{"name":"NETSAT-1","line1":"1 46506U 20068W   26181.95723706  .00014259  00000+0  42281-3 0  9994","line2":"2 46506  97.8741 183.6749 0003272 343.6913  16.4223 15.34952511317410"},{"name":"NETSAT-2","line1":"1 46507U 20068X   26182.01358006  .00028638  00000+0  57595-3 0  9990","line2":"2 46507  97.8606 191.3154 0001530 321.4656  38.6483 15.46589949317878"},{"name":"NETSAT-3","line1":"1 46505U 20068V   26182.00993756  .00021359  00000+0  48354-3 0  9990","line2":"2 46505  97.8648 189.5644 0002899 289.5565  70.5368 15.43153659317810"},{"name":"NETSAT-4","line1":"1 46504U 20068U   26181.99314963  .00020676  00000+0  45016-3 0  9996","line2":"2 46504  97.8597 191.3470 0003299 259.8580 100.2295 15.44320928317908"},{"name":"R2","line1":"1 46913U 20081J   26182.12534049  .00010180  00000+0  39404-3 0  9993","line2":"2 46913  36.8982 335.4340 0007225  34.5785 325.5433 15.25633641314112"},{"name":"STARLINK-2342","line1":"1 47883U 21021Z   26182.16670139  .00334281  00000+0  12773-2 0  9990","line2":"2 47883  53.1536  77.7522 0004197 224.8570  12.0233 15.86066974  6003"},{"name":"TIANQI-6","line1":"1 46810U 20076D   26182.11458551  .00004035  00000+0  26344-3 0  9996","line2":"2 46810  35.0002 322.9836 0011017 291.6089  68.3446 15.07276682310682"},{"name":"TYVAK-0130","line1":"1 48606U 21041BF  26182.11116637  .00008682  00000+0  32797-3 0  9991","line2":"2 48606  52.9980 321.4129 0009082 208.3470 151.7034 15.27768223282516"},{"name":"TYVAK-0173","line1":"1 48892U 21059P   26182.10753934  .00001926  00000+0  24714-3 0  9997","line2":"2 48892  96.0081 255.0042 0008574 354.7901   5.3226 14.81935629270306"},{"name":"TYVAK-182A","line1":"1 48271U 21034D   26182.14828436  .00005664  00000+0  38956-3 0  9991","line2":"2 48271  97.5718 240.8237 0004021 285.0042  75.0740 15.06294735281933"},{"name":"UNISAT-7","line1":"1 47945U 21022P   26181.99384064  .00017145  00000+0  41898-3 0  9997","line2":"2 47945  97.3882  87.0646 0009857  37.2488 322.9440 15.40840327291987"}]}