OBJECT_NAME,OBJECT_ID,EPOCH,MEAN_MOTION,ECCENTRICITY,INCLINATION,RA_OF_ASC_NODE,ARG_OF_PERICENTER,MEAN_ANOMALY,EPHEMERIS_TYPE,CLASSIFICATION_TYPE,NORAD_CAT_ID,ELEMENT_SET_NO,REV_AT_EPOCH,BSTAR,MEAN_MOTION_DOT,MEAN_MOTION_DDOT
ICEYE-X6,2020-068M,2026-07-01T05:22:39.202176,15.04596248,.0008468,98.0968,176.5675,52.3355,307.8636,0,U,46497,999,31534,.18438E-3,.2522E-4,0
NETSAT-4,2020-068U,2026-06-30T23:50:08.128032,15.44320928,.0003299,97.8597,191.3470,259.8580,100.2295,0,U,46504,999,31790,.45016E-3,.20676E-3,0
NETSAT-3,2020-068V,2026-07-01T00:14:18.605184,15.43153659,.0002899,97.8648,189.5644,289.5565,70.5368,0,U,46505,999,31781,.48354E-3,.21359E-3,0
NETSAT-1,2020-068W,2026-06-30T22:58:25.281984,15.34952511,.0003272,97.8741,183.6749,343.6913,16.4223,0,U,46506,999,31741,.42281E-3,.14259E-3,0
NETSAT-2,2020-068X,2026-07-01T00:19:33.317184,15.46589949,.000153,97.8606,191.3154,321.4656,38.6483,0,U,46507,999,31787,.57595E-3,.28638E-3,0
TIANQI-6,2020-076D,2026-07-01T02:45:00.188064,15.07276682,.0011017,35.0002,322.9836,291.6089,68.3446,0,U,46810,999,31068,.26344E-3,.4035E-4,0
KSM1-C,2020-081B,2026-06-30T19:51:01.526400,15.26963281,.00032768,36.8969,334.7217,322.3438,37.7081,0,U,46906,999,31125,.32370574E-3,.8684E-4,0
KSM1-D,2020-081C,2026-06-30T21:54:00.554688,15.24916567,.0003832,36.8982,343.4697,353.1535,6.9161,0,U,46907,999,31119,.31033E-3,.7817E-4,0
KSM1-A,2020-081H,2026-06-30T21:40:01.106112,15.26172040,.0002391,36.8981,336.7508,44.1542,315.9398,0,U,46912,999,31127,.31964E-3,.8368E-4,0
R2,2020-081J,2026-07-01T03:00:29.418336,15.25633641,.0007225,36.8982,335.4340,34.5785,325.5433,0,U,46913,999,31411,.39404E-3,.1018E-3,0
KSM1-B,2020-081K,2026-07-01T05:53:14.957664,15.24707662,.000493,36.9038,342.0596,24.9510,335.1477,0,U,46914,999,31433,.28806E-3,.7203E-4,0
GONETS-M 20,2020-091A,2026-07-01T04:09:48.222720,12.42894134,.0021768,82.5059,293.7413,148.0880,212.1523,0,U,47227,999,25281,.47697E-3,.76E-6,0
GONETS-M 21,2020-091B,2026-07-01T03:32:15.793728,12.42887141,.0015375,82.4983,292.4560,160.9441,199.2217,0,U,47228,999,25280,.16089E-3,.32E-6,0
GONETS-M 22,2020-091C,2026-07-01T04:49:21.340416,12.42893657,.0022718,82.5041,293.3279,143.6221,216.6408,0,U,47229,999,25276,.10052E-2,.149E-5,0
CUBEL,2021-006AM,2026-07-01T02:51:08.812800,15.41712961,.0007988,97.2321,232.5741,121.9543,238.2482,0,U,47448,999,30190,.60913E-3,.25713E-3,0
ARKTIKA-M 1,2021-016A,2026-06-29T22:50:46.732128,2.00617895,.72928178,63.2520,55.7907,269.9910,14.5481,0,U,47719,999,3904,0,-.281E-5,0
STARLINK-2342,2021-021Z,2026-07-01T04:00:03.000096,15.86066974,.0004197,53.1536,77.7522,224.8570,12.0233,0,U,47883,999,600,.12773E-2,.334281E-2,0
GRUS-1B,2021-022C,2026-07-01T04:43:33.057696,14.98745343,.0014776,97.5360,64.9319,272.6714,87.2818,0,U,47934,999,28799,.73427E-4,.828E-5,0
2021-022F,2021-022F,2026-07-01T05:13:01.162848,15.33269810,.0011003,97.3883,82.9033,51.0963,309.1258,0,U,47937,999,29186,.32611E-3,.10427E-3,0
UNISAT-7,2021-022P,2026-06-30T23:51:07.831296,15.40840327,.0009857,97.3882,87.0646,37.2488,322.9440,0,U,47945,999,29198,.41898E-3,.17145E-3,0
2021-022X,2021-022X,2026-07-01T03:50:29.435424,15.77702977,.0003904,97.3897,100.1062,73.7179,286.4517,0,U,47953,999,29270,.91417E-3,.154902E-2,0
GLOBAL-9,2021-023G,2026-06-30T10:15:42.619104,15.47060285,.00030661,44.9789,176.0800,39.4529,320.6584,0,U,47971,999,29699,.32518522E-3,.16497E-3,0
AII-BRAVO,2021-034C,2026-07-01T03:07:41.167776,15.03580811,.0005021,97.5610,236.7248,198.6913,161.4129,0,U,48270,999,28171,.32245E-3,.4347E-4,0
TYVAK-182A,2021-034D,2026-07-01T03:33:31.768704,15.06294735,.0004021,97.5718,240.8237,285.0042,75.0740,0,U,48271,999,28193,.38956E-3,.5664E-4,0
CSS (TIANHE),2021-035A,2026-07-01T02:45:59.695200,15.61398699,.0008757,41.4677,237.2035,190.5766,169.4890,0,U,48274,999,29534,.24568E-3,.21315E-3,0
TYVAK-0130,2021-041BF,2026-07-01T02:40:04.774368,15.27768223,.0009082,52.9980,321.4129,208.3470,151.7034,0,U,48606,999,28251,.32797E-3,.8682E-4,0
HAIYANG-2D,2021-043A,2026-07-01T04:09:15.949728,13.83373239,.0011545,65.9997,269.8798,267.3974,92.5773,0,U,48621,999,25848,.33289E-3,.285E-5,0
2021-050D,2021-050D,2026-07-01T04:41:03.602976,15.23464457,.0004979,97.3341,257.9118,198.5304,161.5753,0,U,48843,999,28109,.13945E-3,.3255E-4,0
TYVAK-0173,2021-059P,2026-07-01T02:34:51.398976,14.81935629,.0008574,96.0081,255.0042,354.7901,5.3226,0,U,48892,999,27030,.24714E-3,.1926E-4,0
MANDRAKE 2 ABLE,2021-059AE,2026-07-01T01:43:01.415424,15.55531860,.0003478,97.7023,12.9195,304.0714,56.0209,0,U,48907,999,27928,.39103E-3,.26678E-3,0
MANDRAKE 2 BAKER,2021-059AF,2026-07-01T00:37:23.603232,15.60270269,.0002112,97.6990,15.8397,295.3181,64.7856,0,U,48908,999,27945,.42655E-3,.34788E-3,0
